STARLINK-1186_new
1 15099C 20006BH  21326.16199001  .00003774  00000-0  25290-3 0  3262
2 15099  53.0558  88.0028 0001393  75.2910 220.9939 15.06393641    14
STARLINK-1186_old
1 25099C 20006BH  21325.12204196 -.00007878  00000-0 -52790-3 0  3254
2 25099  53.0557  92.6708 0001412  74.4154 339.0900 15.06399874    16
